CCSDS_OMM_VERS = 2.0
CREATION_DATE  = 
ORIGINATOR     = 

OBJECT_NAME    = AQUA
OBJECT_ID      = 2002-022A
CENTER_NAME    = EARTH
REF_FRAME      = TEME
TIME_SYSTEM    = UTC
MEAN_ELEMENT_THEORY = SGP/SGP4

EPOCH          = 2026-04-03T08:12:18.552960
MEAN_MOTION    = 14.62037672
ECCENTRICITY   = .00013486
INCLINATION    = 98.4217
RA_OF_ASC_NODE = 61.1638
ARG_OF_PERICENTER = 115.7890
MEAN_ANOMALY   = 45.5803

EPHEMERIS_TYPE = 0
CLASSIFICATION_TYPE = U
NORAD_CAT_ID   = 27424
ELEMENT_SET_NO = 999
REV_AT_EPOCH   = 27233
BSTAR          = .34565387E-3
MEAN_MOTION_DOT = .1685E-4
MEAN_MOTION_DDOT = 0

CCSDS_OMM_VERS = 2.0
CREATION_DATE  = 
ORIGINATOR     = 

OBJECT_NAME    = CZ-4B R/B
OBJECT_ID      = 2002-024C
CENTER_NAME    = EARTH
REF_FRAME      = TEME
TIME_SYSTEM    = UTC
MEAN_ELEMENT_THEORY = SGP/SGP4

EPOCH          = 2026-04-03T02:53:36.254400
MEAN_MOTION    = 14.14552228
ECCENTRICITY   = .00492989
INCLINATION    = 98.8784
RA_OF_ASC_NODE = 146.3983
ARG_OF_PERICENTER = 314.4707
MEAN_ANOMALY   = 99.4173

EPHEMERIS_TYPE = 0
CLASSIFICATION_TYPE = U
NORAD_CAT_ID   = 27432
ELEMENT_SET_NO = 999
REV_AT_EPOCH   = 23269
BSTAR          = .65335777E-4
MEAN_MOTION_DOT = .82E-6
MEAN_MOTION_DDOT = 0

CCSDS_OMM_VERS = 2.0
CREATION_DATE  = 
ORIGINATOR     = 

OBJECT_NAME    = MIDORI II (ADEOS-II)
OBJECT_ID      = 2002-056A
CENTER_NAME    = EARTH
REF_FRAME      = TEME
TIME_SYSTEM    = UTC
MEAN_ELEMENT_THEORY = SGP/SGP4

EPOCH          = 2026-04-03T07:19:29.915040
MEAN_MOTION    = 14.29305211
ECCENTRICITY   = .00004514
INCLINATION    = 98.7813
RA_OF_ASC_NODE = 51.9596
ARG_OF_PERICENTER = 21.2265
MEAN_ANOMALY   = 338.8935

EPHEMERIS_TYPE = 0
CLASSIFICATION_TYPE = U
NORAD_CAT_ID   = 27597
ELEMENT_SET_NO = 999
REV_AT_EPOCH   = 21381
BSTAR          = .22471632E-3
MEAN_MOTION_DOT = .527E-5
MEAN_MOTION_DDOT = 0

CCSDS_OMM_VERS = 2.0
CREATION_DATE  = 
ORIGINATOR     = 

OBJECT_NAME    = H-2A R/B
OBJECT_ID      = 2002-056E
CENTER_NAME    = EARTH
REF_FRAME      = TEME
TIME_SYSTEM    = UTC
MEAN_ELEMENT_THEORY = SGP/SGP4

EPOCH          = 2026-04-03T02:57:28.507968
MEAN_MOTION    = 14.33778730
ECCENTRICITY   = .00714339
INCLINATION    = 98.3247
RA_OF_ASC_NODE = 52.5650
ARG_OF_PERICENTER = 88.7893
MEAN_ANOMALY   = 284.0043

EPHEMERIS_TYPE = 0
CLASSIFICATION_TYPE = U
NORAD_CAT_ID   = 27601
ELEMENT_SET_NO = 999
REV_AT_EPOCH   = 21761
BSTAR          = .18828683E-3
MEAN_MOTION_DOT = .497E-5
MEAN_MOTION_DDOT = 0

CCSDS_OMM_VERS = 2.0
CREATION_DATE  = 
ORIGINATOR     = 

OBJECT_NAME    = CZ-4B R/B
OBJECT_ID      = 2003-049C
CENTER_NAME    = EARTH
REF_FRAME      = TEME
TIME_SYSTEM    = UTC
MEAN_ELEMENT_THEORY = SGP/SGP4

EPOCH          = 2026-04-03T00:03:15.966432
MEAN_MOTION    = 14.55043337
ECCENTRICITY   = .00486001
INCLINATION    = 98.6896
RA_OF_ASC_NODE = 88.8649
ARG_OF_PERICENTER = 156.2598
MEAN_ANOMALY   = 204.0855

EPHEMERIS_TYPE = 0
CLASSIFICATION_TYPE = U
NORAD_CAT_ID   = 28059
ELEMENT_SET_NO = 999
REV_AT_EPOCH   = 19013
BSTAR          = .1426486E-3
MEAN_MOTION_DOT = .573E-5
MEAN_MOTION_DDOT = 0

CCSDS_OMM_VERS = 2.0
CREATION_DATE  = 
ORIGINATOR     = 

OBJECT_NAME    = CZ-2C R/B
OBJECT_ID      = 2004-012C
CENTER_NAME    = EARTH
REF_FRAME      = TEME
TIME_SYSTEM    = UTC
MEAN_ELEMENT_THEORY = SGP/SGP4

EPOCH          = 2026-04-03T03:30:49.163904
MEAN_MOTION    = 15.67640025
ECCENTRICITY   = .00135992
INCLINATION    = 97.7169
RA_OF_ASC_NODE = 160.8052
ARG_OF_PERICENTER = 213.4051
MEAN_ANOMALY   = 146.6352

EPHEMERIS_TYPE = 0
CLASSIFICATION_TYPE = U
NORAD_CAT_ID   = 28222
ELEMENT_SET_NO = 999
REV_AT_EPOCH   = 20810
BSTAR          = .77609172E-3
MEAN_MOTION_DOT = .85576E-3
MEAN_MOTION_DDOT = 0

CCSDS_OMM_VERS = 2.0
CREATION_DATE  = 
ORIGINATOR     = 

OBJECT_NAME    = SL-16 R/B
OBJECT_ID      = 2004-021B
CENTER_NAME    = EARTH
REF_FRAME      = TEME
TIME_SYSTEM    = UTC
MEAN_ELEMENT_THEORY = SGP/SGP4

EPOCH          = 2026-04-03T06:39:06.686208
MEAN_MOTION    = 14.14598973
ECCENTRICITY   = .00053239
INCLINATION    = 71.0012
RA_OF_ASC_NODE = 180.8955
ARG_OF_PERICENTER = 339.1001
MEAN_ANOMALY   = 20.9903

EPHEMERIS_TYPE = 0
CLASSIFICATION_TYPE = U
NORAD_CAT_ID   = 28353
ELEMENT_SET_NO = 999
REV_AT_EPOCH   = 12631
BSTAR          = .2286048E-3
MEAN_MOTION_DOT = .392E-5
MEAN_MOTION_DDOT = 0

CCSDS_OMM_VERS = 2.0
CREATION_DATE  = 
ORIGINATOR     = 

OBJECT_NAME    = CZ-4B R/B
OBJECT_ID      = 2004-035C
CENTER_NAME    = EARTH
REF_FRAME      = TEME
TIME_SYSTEM    = UTC
MEAN_ELEMENT_THEORY = SGP/SGP4

EPOCH          = 2026-04-03T02:51:42.637536
MEAN_MOTION    = 15.29509963
ECCENTRICITY   = .00302297
INCLINATION    = 97.3450
RA_OF_ASC_NODE = 127.0706
ARG_OF_PERICENTER = 240.0544
MEAN_ANOMALY   = 119.7694

EPHEMERIS_TYPE = 0
CLASSIFICATION_TYPE = U
NORAD_CAT_ID   = 28415
ELEMENT_SET_NO = 999
REV_AT_EPOCH   = 18364
BSTAR          = .5091973E-3
MEAN_MOTION_DOT = .14703E-3
MEAN_MOTION_DDOT = 0

CCSDS_OMM_VERS = 2.0
CREATION_DATE  = 
ORIGINATOR     = 

OBJECT_NAME    = CZ-2C R/B
OBJECT_ID      = 2004-046B
CENTER_NAME    = EARTH
REF_FRAME      = TEME
TIME_SYSTEM    = UTC
MEAN_ELEMENT_THEORY = SGP/SGP4

EPOCH          = 2026-04-03T07:22:38.461440
MEAN_MOTION    = 14.27002008
ECCENTRICITY   = .0140643
INCLINATION    = 98.1977
RA_OF_ASC_NODE = 6.7574
ARG_OF_PERICENTER = 82.1436
MEAN_ANOMALY   = 279.5684

EPHEMERIS_TYPE = 0
CLASSIFICATION_TYPE = U
NORAD_CAT_ID   = 28480
ELEMENT_SET_NO = 999
REV_AT_EPOCH   = 11201
BSTAR          = .11869709E-3
MEAN_MOTION_DOT = .281E-5
MEAN_MOTION_DDOT = 0

CCSDS_OMM_VERS = 2.0
CREATION_DATE  = 
ORIGINATOR     = 

OBJECT_NAME    = ARIANE 5 R/B
OBJECT_ID      = 2004-049H
CENTER_NAME    = EARTH
REF_FRAME      = TEME
TIME_SYSTEM    = UTC
MEAN_ELEMENT_THEORY = SGP/SGP4

EPOCH          = 2026-04-03T05:19:20.672256
MEAN_MOTION    = 14.85315541
ECCENTRICITY   = .00828171
INCLINATION    = 98.2662
RA_OF_ASC_NODE = 262.6036
ARG_OF_PERICENTER = 271.6083
MEAN_ANOMALY   = 87.5646

EPHEMERIS_TYPE = 0
CLASSIFICATION_TYPE = U
NORAD_CAT_ID   = 28499
ELEMENT_SET_NO = 999
REV_AT_EPOCH   = 14943
BSTAR          = .17120666E-3
MEAN_MOTION_DOT = .1498E-4
MEAN_MOTION_DDOT = 0

CCSDS_OMM_VERS = 2.0
CREATION_DATE  = 
ORIGINATOR     = 

OBJECT_NAME    = CZ-2D R/B
OBJECT_ID      = 2005-024B
CENTER_NAME    = EARTH
REF_FRAME      = TEME
TIME_SYSTEM    = UTC
MEAN_ELEMENT_THEORY = SGP/SGP4

EPOCH          = 2026-04-03T03:05:29.810400
MEAN_MOTION    = 15.62509279
ECCENTRICITY   = .00017695
INCLINATION    = 97.3566
RA_OF_ASC_NODE = 109.2100
ARG_OF_PERICENTER = 291.2562
MEAN_ANOMALY   = 68.8507

EPHEMERIS_TYPE = 0
CLASSIFICATION_TYPE = U
NORAD_CAT_ID   = 28738
ELEMENT_SET_NO = 999
REV_AT_EPOCH   = 14359
BSTAR          = .80926334E-3
MEAN_MOTION_DOT = .72373E-3
MEAN_MOTION_DDOT = 0

CCSDS_OMM_VERS = 2.0
CREATION_DATE  = 
ORIGINATOR     = 

OBJECT_NAME    = ALOS (DAICHI)
OBJECT_ID      = 2006-002A
CENTER_NAME    = EARTH
REF_FRAME      = TEME
TIME_SYSTEM    = UTC
MEAN_ELEMENT_THEORY = SGP/SGP4

EPOCH          = 2026-04-03T03:30:24.618528
MEAN_MOTION    = 14.69889995
ECCENTRICITY   = .00011155
INCLINATION    = 98.1259
RA_OF_ASC_NODE = 48.9863
ARG_OF_PERICENTER = 114.0829
MEAN_ANOMALY   = 246.0494

EPHEMERIS_TYPE = 0
CLASSIFICATION_TYPE = U
NORAD_CAT_ID   = 28931
ELEMENT_SET_NO = 999
REV_AT_EPOCH   = 7707
BSTAR          = .40238858E-3
MEAN_MOTION_DOT = .2358E-4
MEAN_MOTION_DDOT = 0

